{"type": "FeatureCollection", "features": [ {"type": "Feature", "properties": {"norad_id": 57401, "name": "TIANMU-1 09", "group": "weather", "lat": 55.93569634778515, "lon": -123.5096290031226, "alt_km": 474.1097977078671, "timestamp": "2025-12-22T15:43:48.625778+00:00", "meta": {"OBJECT_NAME": "TIANMU-1 09", "OBJECT_ID": "2023-101C", "EPOCH": "2025-12-22T07:20:08.414880", "MEAN_MOTION": 15.28215261, "ECCENTRICITY": 0.00064093, "INCLINATION": 97.2805, "RA_OF_ASC_NODE": 45.2493, "ARG_OF_PERICENTER": 57.6676, "MEAN_ANOMALY": 302.5184, "EPHEMERIS_TYPE": 0, "CLASSIFICATION_TYPE": "U", "NORAD_CAT_ID": 57401, "ELEMENT_SET_NO": 999, "REV_AT_EPOCH": 13461, "BSTAR": 0.0002969943, "MEAN_MOTION_DOT": 8.099e-05, "MEAN_MOTION_DDOT": 0}, "tle": {"line1": "1 57401U 23101C   25356.30565295  .00008099  00000+0  29699-3 0  9993", "line2": "2 57401  97.2805  45.2493 0006409  57.6676 302.5184 15.28215261134614"}}, "geometry": {"type": "Point", "coordinates": [-123.5096290031226, 55.93569634778515]}}, {"type": "Feature", "properties": {"norad_id": 57402, "name": "TIANMU-1 10", "group": "weather", "lat": -64.2850744621719, "lon": 61.86387980421969, "alt_km": 491.14630456817304, "timestamp": "2025-12-22T15:43:48.625788+00:00", "meta": {"OBJECT_NAME": "TIANMU-1 10", "OBJECT_ID": "2023-101D", "EPOCH": "2025-12-22T06:35:11.426784", "MEAN_MOTION": 15.28206944, "ECCENTRICITY": 0.00081275, "INCLINATION": 97.2885, "RA_OF_ASC_NODE": 46.0788, "ARG_OF_PERICENTER": 55.6859, "MEAN_ANOMALY": 304.5149, "EPHEMERIS_TYPE": 0, "CLASSIFICATION_TYPE": "U", "NORAD_CAT_ID": 57402, "ELEMENT_SET_NO": 999, "REV_AT_EPOCH": 13460, "BSTAR": 0.00029969043, "MEAN_MOTION_DOT": 8.174e-05, "MEAN_MOTION_DDOT": 0}, "tle": {"line1": "1 57402U 23101D   25356.27443781  .00008174  00000+0  29969-3 0  9999", "line2": "2 57402  97.2885  46.0788 0008127  55.6859 304.5149 15.28206944134609"}}, "geometry": {"type": "Point", "coordinates": [61.86387980421969, -64.2850744621719]}}, {"type": "Feature", "properties": {"norad_id": 57490, "name": "FENGYUN 3F", "group": "weather", "lat": -61.846629726785906, "lon": 81.42854500221432, "alt_km": 833.4084541364418, "timestamp": "2025-12-22T15:43:48.625803+00:00", "meta": {"OBJECT_NAME": "FENGYUN 3F", "OBJECT_ID": "2023-111A", "EPOCH": "2025-12-22T07:34:15.399264", "MEAN_MOTION": 14.19896002, "ECCENTRICITY": 7.834e-05, "INCLINATION": 98.7071, "RA_OF_ASC_NODE": 64.4539, "ARG_OF_PERICENTER": 114.8515, "MEAN_ANOMALY": 245.2743, "EPHEMERIS_TYPE": 0, "CLASSIFICATION_TYPE": "U", "NORAD_CAT_ID": 57490, "ELEMENT_SET_NO": 999, "REV_AT_EPOCH": 12376, "BSTAR": 5.8881996e-05, "MEAN_MOTION_DOT": 8.1e-07, "MEAN_MOTION_DDOT": 0}, "tle": {"line1": "1 57490U 23111A   25356.31545601  .00000081  00000+0  58882-4 0  9992", "line2": "2 57490  98.7071  64.4539 0000783 114.8515 245.2743 14.19896002123769"}}, "geometry": {"type": "Point", "coordinates": [81.42854500221432, -61.846629726785906]}}, {"type": "Feature", "properties": {"norad_id": 58584, "name": "ARKTIKA-M 2", "group": "weather", "lat": 52.83548915980165, "lon": -47.9874125051995, "alt_km": 28922.06613721995, "timestamp": "2025-12-22T15:43:48.625822+00:00", "meta": {"OBJECT_NAME": "ARKTIKA-M 2", "OBJECT_ID": "2023-198A", "EPOCH": "2025-12-20T07:20:06.590112", "MEAN_MOTION": 2.00602824, "ECCENTRICITY": 0.68654675, "INCLINATION": 63.225, "RA_OF_ASC_NODE": 174.0676, "ARG_OF_PERICENTER": 268.0739, "MEAN_ANOMALY": 18.8406, "EPHEMERIS_TYPE": 0, "CLASSIFICATION_TYPE": "U", "NORAD_CAT_ID": 58584, "ELEMENT_SET_NO": 999, "REV_AT_EPOCH": 1473, "BSTAR": 0, "MEAN_MOTION_DOT": 2.01e-06, "MEAN_MOTION_DDOT": 0}, "tle": {"line1": "1 58584U 23198A   25354.30563183  .00000201  00000+0  00000+0 0  9992", "line2": "2 58584  63.2250 174.0676 6865467 268.0739  18.8406  2.00602824 14734"}}, "geometry": {"type": "Point", "coordinates": [-47.9874125051995, 52.83548915980165]}}, {"type": "Feature", "properties": {"norad_id": 58645, "name": "TIANMU-1 11", "group": "weather", "lat": -10.247374564282378, "lon": 17.44338841979045, "alt_km": 495.2060106424142, "timestamp": "2025-12-22T15:43:48.625838+00:00", "meta": {"OBJECT_NAME": "TIANMU-1 11", "OBJECT_ID": "2023-205A", "EPOCH": "2025-12-22T06:19:29.613216", "MEAN_MOTION": 15.24707659, "ECCENTRICITY": 0.00075313, "INCLINATION": 97.3593, "RA_OF_ASC_NODE": 15.7195, "ARG_OF_PERICENTER": 269.6837, "MEAN_ANOMALY": 90.3538, "EPHEMERIS_TYPE": 0, "CLASSIFICATION_TYPE": "U", "NORAD_CAT_ID": 58645, "ELEMENT_SET_NO": 999, "REV_AT_EPOCH": 11054, "BSTAR": 0.00026454231, "MEAN_MOTION_DOT": 6.478e-05, "MEAN_MOTION_DDOT": 0}, "tle": {"line1": "1 58645U 23205A   25356.26353719  .00006478  00000+0  26454-3 0  9995", "line2": "2 58645  97.3593  15.7195 0007531 269.6837  90.3538 15.24707659110546"}}, "geometry": {"type": "Point", "coordinates": [17.44338841979045, -10.247374564282378]}}, {"type": "Feature", "properties": {"norad_id": 58646, "name": "TIANMU-1 12", "group": "weather", "lat": -17.710899646735726, "lon": -166.4585509224999, "alt_km": 494.42664349924416, "timestamp": "2025-12-22T15:43:48.625849+00:00", "meta": {"OBJECT_NAME": "TIANMU-1 12", "OBJECT_ID": "2023-205B", "EPOCH": "2025-12-22T05:24:49.667040", "MEAN_MOTION": 15.24592722, "ECCENTRICITY": 0.00058473, "INCLINATION": 97.3581, "RA_OF_ASC_NODE": 15.4844, "ARG_OF_PERICENTER": 248.1469, "MEAN_ANOMALY": 111.9147, "EPHEMERIS_TYPE": 0, "CLASSIFICATION_TYPE": "U", "NORAD_CAT_ID": 58646, "ELEMENT_SET_NO": 999, "REV_AT_EPOCH": 11052, "BSTAR": 0.0002660825, "MEAN_MOTION_DOT": 6.492e-05, "MEAN_MOTION_DDOT": 0}, "tle": {"line1": "1 58646U 23205B   25356.22557485  .00006492  00000+0  26608-3 0  9995", "line2": "2 58646  97.3581  15.4844 0005847 248.1469 111.9147 15.24592722110520"}}, "geometry": {"type": "Point", "coordinates": [-166.4585509224999, -17.710899646735726]}}, {"type": "Feature", "properties": {"norad_id": 58647, "name": "TIANMU-1 13", "group": "weather", "lat": 15.113578287259534, "lon": 14.110998404516172, "alt_km": 496.67497085662944, "timestamp": "2025-12-22T15:43:48.625859+00:00", "meta": {"OBJECT_NAME": "TIANMU-1 13", "OBJECT_ID": "2023-205C", "EPOCH": "2025-12-22T07:47:15.619776", "MEAN_MOTION": 15.24637437, "ECCENTRICITY": 0.00064231, "INCLINATION": 97.3608, "RA_OF_ASC_NODE": 15.7866, "ARG_OF_PERICENTER": 224.8657, "MEAN_ANOMALY": 135.2063, "EPHEMERIS_TYPE": 0, "CLASSIFICATION_TYPE": "U", "NORAD_CAT_ID": 58647, "ELEMENT_SET_NO": 999, "REV_AT_EPOCH": 11053, "BSTAR": 0.00027076873, "MEAN_MOTION_DOT": 6.617e-05, "MEAN_MOTION_DDOT": 0}, "tle": {"line1": "1 58647U 23205C   25356.32448634  .00006617  00000+0  27077-3 0  9992", "line2": "2 58647  97.3608  15.7866 0006423 224.8657 135.2063 15.24637437110539"}}, "geometry": {"type": "Point", "coordinates": [14.110998404516172, 15.113578287259534]}}, {"type": "Feature", "properties": {"norad_id": 58648, "name": "TIANMU-1 14", "group": "weather", "lat": 72.67000183986157, "lon": -140.09857773232557, "alt_km": 487.70174945987765, "timestamp": "2025-12-22T15:43:48.625869+00:00", "meta": {"OBJECT_NAME": "TIANMU-1 14", "OBJECT_ID": "2023-205D", "EPOCH": "2025-12-22T07:23:30.405984", "MEAN_MOTION": 15.2462031, "ECCENTRICITY": 0.00071322, "INCLINATION": 97.3541, "RA_OF_ASC_NODE": 15.1103, "ARG_OF_PERICENTER": 231.0812, "MEAN_ANOMALY": 128.979, "EPHEMERIS_TYPE": 0, "CLASSIFICATION_TYPE": "U", "NORAD_CAT_ID": 58648, "ELEMENT_SET_NO": 999, "REV_AT_EPOCH": 11053, "BSTAR": 0.00026007577, "MEAN_MOTION_DOT": 6.35e-05, "MEAN_MOTION_DDOT": 0}, "tle": {"line1": "1 58648U 23205D   25356.30799081  .00006350  00000+0  26008-3 0  9993", "line2": "2 58648  97.3541  15.1103 0007132 231.0812 128.9790 15.24620310110533"}}, "geometry": {"type": "Point", "coordinates": [-140.09857773232557, 72.67000183986157]}}, {"type": "Feature", "properties": {"norad_id": 58660, "name": "TIANMU-1 19", "group": "weather", "lat": 58.35656390791618, "lon": -60.08412575144023, "alt_km": 476.0988676946945, "timestamp": "2025-12-22T15:43:48.625879+00:00", "meta": {"OBJECT_NAME": "TIANMU-1 19", "OBJECT_ID": "2023-208A", "EPOCH": "2025-12-22T07:20:40.833888", "MEAN_MOTION": 15.28014047, "ECCENTRICITY": 0.00046067, "INCLINATION": 97.4394, "RA_OF_ASC_NODE": 107.3253, "ARG_OF_PERICENTER": 211.3383, "MEAN_ANOMALY": 148.7582, "EPHEMERIS_TYPE": 0, "CLASSIFICATION_TYPE": "U", "NORAD_CAT_ID": 58660, "ELEMENT_SET_NO": 999, "REV_AT_EPOCH": 11028, "BSTAR": 0.00036839282, "MEAN_MOTION_DOT": 9.999e-05, "MEAN_MOTION_DDOT": 0}, "tle": {"line1": "1 58660U 23208A   25356.30602817  .00009999  00000+0  36839-3 0  9995", "line2": "2 58660  97.4394 107.3253 0004606 211.3383 148.7582 15.28014047110280"}}, "geometry": {"type": "Point", "coordinates": [-60.08412575144023, 58.35656390791618]}}, {"type": "Feature", "properties": {"norad_id": 58661, "name": "TIANMU-1 20", "group": "weather", "lat": -56.83587949632848, "lon": -83.39317926445914, "alt_km": 480.83883947417144, "timestamp": "2025-12-22T15:43:48.625889+00:00", "meta": {"OBJECT_NAME": "TIANMU-1 20", "OBJECT_ID": "2023-208B", "EPOCH": "2025-12-22T06:50:31.789824", "MEAN_MOTION": 15.2920339, "ECCENTRICITY": 0.00066553, "INCLINATION": 97.4332, "RA_OF_ASC_NODE": 107.7613, "ARG_OF_PERICENTER": 226.0413, "MEAN_ANOMALY": 134.0279, "EPHEMERIS_TYPE": 0, "CLASSIFICATION_TYPE": "U", "NORAD_CAT_ID": 58661, "ELEMENT_SET_NO": 999, "REV_AT_EPOCH": 11035, "BSTAR": 0.00035235486, "MEAN_MOTION_DOT": 9.918e-05, "MEAN_MOTION_DDOT": 0}, "tle": {"line1": "1 58661U 23208B   25356.28509016  .00009918  00000+0  35235-3 0  9990", "line2": "2 58661  97.4332 107.7613 0006655 226.0413 134.0279 15.29203390110351"}}, "geometry": {"type": "Point", "coordinates": [-83.39317926445914, -56.83587949632848]}}]}